<?xml version="1.0" encoding="UTF-8"?>
<kml xmlns="http://www.opengis.net/kml/2.2" xmlns:gx="http://www.google.com/kml/ext/2.2" xmlns:kml="http://www.opengis.net/kml/2.2" xmlns:atom="http://www.w3.org/2005/Atom">
<Document id="1gfcwSys03oKDEIhqUBL6jXx91tBtpaFU">
	<name>Proyecto</name>
	<gx:CascadingStyle kml:id="__managed_style_05F659D91541B39BB29C_highlight">
		<styleUrl>https://earth.google.com/balloon_components/base/1.1.0.0/none_template.kml#main</styleUrl>
		<Style>
			<IconStyle>
				<scale>1.2</scale>
				<Icon>
					<href>https://earth.google.com/earth/document/icon?color=fbc02d&amp;id=2000&amp;scale=4</href>
				</Icon>
				<hotSpot x="64" y="128" xunits="pixels" yunits="insetPixels"/>
			</IconStyle>
			<LabelStyle>
			</LabelStyle>
			<LineStyle>
				<color>ff2dc0fb</color>
				<width>4.8</width>
			</LineStyle>
			<PolyStyle>
				<color>40ffffff</color>
			</PolyStyle>
			<BalloonStyle>
				<displayMode>hide</displayMode>
			</BalloonStyle>
		</Style>
	</gx:CascadingStyle>
	<StyleMap id="__managed_style_05F659D91541B39BB29C">
		<Pair>
			<key>normal</key>
			<styleUrl>#__managed_style_05F659D91541B39BB29C_normal</styleUrl>
		</Pair>
		<Pair>
			<key>highlight</key>
			<styleUrl>#__managed_style_05F659D91541B39BB29C_highlight</styleUrl>
		</Pair>
	</StyleMap>
	<gx:CascadingStyle kml:id="__managed_style_13BED54BD441B39BB2A1_highlight">
		<Style>
			<IconStyle>
				<scale>1.2</scale>
				<Icon>
					<href>https://earth.google.com/earth/document/icon?color=fbc02d&amp;id=2000&amp;scale=4</href>
				</Icon>
				<hotSpot x="64" y="128" xunits="pixels" yunits="insetPixels"/>
			</IconStyle>
			<LabelStyle>
			</LabelStyle>
			<LineStyle>
				<color>ff2dc0fb</color>
				<width>4.8</width>
			</LineStyle>
			<PolyStyle>
				<color>40ffffff</color>
			</PolyStyle>
			<BalloonStyle>
			</BalloonStyle>
		</Style>
	</gx:CascadingStyle>
	<gx:CascadingStyle kml:id="__managed_style_13BED54BD441B39BB2A1_normal">
		<Style>
			<IconStyle>
				<Icon>
					<href>https://earth.google.com/earth/document/icon?color=fbc02d&amp;id=2000&amp;scale=4</href>
				</Icon>
				<hotSpot x="64" y="128" xunits="pixels" yunits="insetPixels"/>
			</IconStyle>
			<LabelStyle>
			</LabelStyle>
			<LineStyle>
				<color>ff2dc0fb</color>
				<width>3.2</width>
			</LineStyle>
			<PolyStyle>
				<color>40ffffff</color>
			</PolyStyle>
			<BalloonStyle>
			</BalloonStyle>
		</Style>
	</gx:CascadingStyle>
	<StyleMap id="__managed_style_13BED54BD441B39BB2A1">
		<Pair>
			<key>normal</key>
			<styleUrl>#__managed_style_13BED54BD441B39BB2A1_normal</styleUrl>
		</Pair>
		<Pair>
			<key>highlight</key>
			<styleUrl>#__managed_style_13BED54BD441B39BB2A1_highlight</styleUrl>
		</Pair>
	</StyleMap>
	<gx:CascadingStyle kml:id="__managed_style_0C30A793B441B39BB2A1_highlight">
		<Style>
			<IconStyle>
				<scale>1.2</scale>
				<Icon>
					<href>https://earth.google.com/earth/document/icon?color=fbc02d&amp;id=2000&amp;scale=4</href>
				</Icon>
				<hotSpot x="64" y="128" xunits="pixels" yunits="insetPixels"/>
			</IconStyle>
			<LabelStyle>
			</LabelStyle>
			<LineStyle>
				<color>ff2dc0fb</color>
				<width>4.8</width>
			</LineStyle>
			<PolyStyle>
				<color>40ffffff</color>
			</PolyStyle>
			<BalloonStyle>
				<gx:displayMode>card</gx:displayMode>
			</BalloonStyle>
		</Style>
	</gx:CascadingStyle>
	<gx:CascadingStyle kml:id="__managed_style_05F659D91541B39BB29C_normal">
		<styleUrl>https://earth.google.com/balloon_components/base/1.1.0.0/none_template.kml#main</styleUrl>
		<Style>
			<IconStyle>
				<Icon>
					<href>https://earth.google.com/earth/document/icon?color=fbc02d&amp;id=2000&amp;scale=4</href>
				</Icon>
				<hotSpot x="64" y="128" xunits="pixels" yunits="insetPixels"/>
			</IconStyle>
			<LabelStyle>
			</LabelStyle>
			<LineStyle>
				<color>ff2dc0fb</color>
				<width>3.2</width>
			</LineStyle>
			<PolyStyle>
				<color>40ffffff</color>
			</PolyStyle>
			<BalloonStyle>
				<displayMode>hide</displayMode>
			</BalloonStyle>
		</Style>
	</gx:CascadingStyle>
	<StyleMap id="__managed_style_09610D057E41B39BB29B">
		<Pair>
			<key>normal</key>
			<styleUrl>#__managed_style_09610D057E41B39BB29B_normal</styleUrl>
		</Pair>
		<Pair>
			<key>highlight</key>
			<styleUrl>#__managed_style_09610D057E41B39BB29B_highlight</styleUrl>
		</Pair>
	</StyleMap>
	<gx:CascadingStyle kml:id="__managed_style_01011C3E4941B39BB296_normal">
		<Style>
			<IconStyle>
				<scale>1.1</scale>
				<Icon>
					<href>https://earth.google.com/earth/document/icon?color=1976d2&amp;id=2000&amp;scale=4</href>
				</Icon>
				<hotSpot x="64" y="128" xunits="pixels" yunits="insetPixels"/>
			</IconStyle>
			<LabelStyle>
				<scale>1.1</scale>
			</LabelStyle>
			<LineStyle>
				<color>ff2dc0fb</color>
				<width>3.2</width>
			</LineStyle>
			<PolyStyle>
				<color>40ffffff</color>
			</PolyStyle>
			<BalloonStyle>
			</BalloonStyle>
		</Style>
	</gx:CascadingStyle>
	<StyleMap id="__managed_style_01011C3E4941B39BB296">
		<Pair>
			<key>normal</key>
			<styleUrl>#__managed_style_01011C3E4941B39BB296_normal</styleUrl>
		</Pair>
		<Pair>
			<key>highlight</key>
			<styleUrl>#__managed_style_01011C3E4941B39BB296_highlight</styleUrl>
		</Pair>
	</StyleMap>
	<gx:CascadingStyle kml:id="__managed_style_09610D057E41B39BB29B_highlight">
		<Style>
			<IconStyle>
				<scale>1.2</scale>
				<Icon>
					<href>https://earth.google.com/earth/document/icon?color=1976d2&amp;id=2000&amp;scale=4</href>
				</Icon>
				<hotSpot x="64" y="128" xunits="pixels" yunits="insetPixels"/>
			</IconStyle>
			<LabelStyle>
			</LabelStyle>
			<LineStyle>
				<color>ff0000ff</color>
				<width>4.8</width>
			</LineStyle>
			<PolyStyle>
				<color>330000ff</color>
			</PolyStyle>
			<BalloonStyle>
			</BalloonStyle>
		</Style>
	</gx:CascadingStyle>
	<gx:CascadingStyle kml:id="__managed_style_177DE2184B41B39BB29B_highlight">
		<Style>
			<IconStyle>
				<scale>1.2</scale>
				<Icon>
					<href>https://earth.google.com/earth/document/icon?color=1976d2&amp;id=2000&amp;scale=4</href>
				</Icon>
				<hotSpot x="64" y="128" xunits="pixels" yunits="insetPixels"/>
			</IconStyle>
			<LabelStyle>
			</LabelStyle>
			<LineStyle>
				<color>ff2dc0fb</color>
				<width>4.8</width>
			</LineStyle>
			<PolyStyle>
				<color>40ffffff</color>
			</PolyStyle>
			<BalloonStyle>
			</BalloonStyle>
		</Style>
	</gx:CascadingStyle>
	<gx:CascadingStyle kml:id="__managed_style_0C30A793B441B39BB2A1_normal">
		<Style>
			<IconStyle>
				<Icon>
					<href>https://earth.google.com/earth/document/icon?color=fbc02d&amp;id=2000&amp;scale=4</href>
				</Icon>
				<hotSpot x="64" y="128" xunits="pixels" yunits="insetPixels"/>
			</IconStyle>
			<LabelStyle>
			</LabelStyle>
			<LineStyle>
				<color>ff2dc0fb</color>
				<width>3.2</width>
			</LineStyle>
			<PolyStyle>
				<color>40ffffff</color>
			</PolyStyle>
			<BalloonStyle>
				<gx:displayMode>card</gx:displayMode>
			</BalloonStyle>
		</Style>
	</gx:CascadingStyle>
	<gx:CascadingStyle kml:id="__managed_style_09610D057E41B39BB29B_normal">
		<Style>
			<IconStyle>
				<Icon>
					<href>https://earth.google.com/earth/document/icon?color=1976d2&amp;id=2000&amp;scale=4</href>
				</Icon>
				<hotSpot x="64" y="128" xunits="pixels" yunits="insetPixels"/>
			</IconStyle>
			<LabelStyle>
			</LabelStyle>
			<LineStyle>
				<color>ff0000ff</color>
				<width>3.2</width>
			</LineStyle>
			<PolyStyle>
				<color>330000ff</color>
			</PolyStyle>
			<BalloonStyle>
			</BalloonStyle>
		</Style>
	</gx:CascadingStyle>
	<gx:CascadingStyle kml:id="__managed_style_177DE2184B41B39BB29B_normal">
		<Style>
			<IconStyle>
				<Icon>
					<href>https://earth.google.com/earth/document/icon?color=1976d2&amp;id=2000&amp;scale=4</href>
				</Icon>
				<hotSpot x="64" y="128" xunits="pixels" yunits="insetPixels"/>
			</IconStyle>
			<LabelStyle>
			</LabelStyle>
			<LineStyle>
				<color>ff2dc0fb</color>
				<width>3.2</width>
			</LineStyle>
			<PolyStyle>
				<color>40ffffff</color>
			</PolyStyle>
			<BalloonStyle>
			</BalloonStyle>
		</Style>
	</gx:CascadingStyle>
	<StyleMap id="__managed_style_0C30A793B441B39BB2A1">
		<Pair>
			<key>normal</key>
			<styleUrl>#__managed_style_0C30A793B441B39BB2A1_normal</styleUrl>
		</Pair>
		<Pair>
			<key>highlight</key>
			<styleUrl>#__managed_style_0C30A793B441B39BB2A1_highlight</styleUrl>
		</Pair>
	</StyleMap>
	<gx:CascadingStyle kml:id="__managed_style_01011C3E4941B39BB296_highlight">
		<Style>
			<IconStyle>
				<scale>1.32</scale>
				<Icon>
					<href>https://earth.google.com/earth/document/icon?color=1976d2&amp;id=2000&amp;scale=4</href>
				</Icon>
				<hotSpot x="64" y="128" xunits="pixels" yunits="insetPixels"/>
			</IconStyle>
			<LabelStyle>
				<scale>1.1</scale>
			</LabelStyle>
			<LineStyle>
				<color>ff2dc0fb</color>
				<width>4.8</width>
			</LineStyle>
			<PolyStyle>
				<color>40ffffff</color>
			</PolyStyle>
			<BalloonStyle>
			</BalloonStyle>
		</Style>
	</gx:CascadingStyle>
	<StyleMap id="__managed_style_177DE2184B41B39BB29B">
		<Pair>
			<key>normal</key>
			<styleUrl>#__managed_style_177DE2184B41B39BB29B_normal</styleUrl>
		</Pair>
		<Pair>
			<key>highlight</key>
			<styleUrl>#__managed_style_177DE2184B41B39BB29B_highlight</styleUrl>
		</Pair>
	</StyleMap>
	<Folder id="5E86F664EB000001">
		<name>UPME 01-2022 - Poligono SE Huila (A-H)</name>
		<open>1</open>
		<styleUrl>#__managed_style_177DE2184B41B39BB29B</styleUrl>
		<Folder id="5E86F664EB000002">
			<name>Polígono SE Huila - Puntos A-H</name>
			<styleUrl>#__managed_style_177DE2184B41B39BB29B</styleUrl>
			<Placemark id="5E86F664EB000003">
				<name>Polígono SE Huila (A-H)</name>
				<styleUrl>#__managed_style_09610D057E41B39BB29B</styleUrl>
				<Polygon>
					<outerBoundaryIs>
						<LinearRing>
							<coordinates>
								-75.31754944399999,2.983090833,0 -75.313853611,2.982095000000001,0 -75.313746389,2.978582222,0 -75.313839722,2.975370556,0 -75.311740833,2.974270833,0 -75.30287638900001,2.984125278,0 -75.30299888899999,2.994964722,0 -75.32236583300001,2.994823333,0 -75.31754944399999,2.983090833,0 
							</coordinates>
						</LinearRing>
					</outerBoundaryIs>
				</Polygon>
			</Placemark>
			<Placemark id="5E86F664EB000004">
				<name>Punto A</name>
				<description><![CDATA[
        <b>Punto A</b><br/>
        Latitud: 2.994823333° N<br/>
        Longitud: 75.322365833° W<br/>
        Coordenada KML: -75.322365833, 2.994823333, 0
      ]]></description>
				<styleUrl>#__managed_style_01011C3E4941B39BB296</styleUrl>
				<Point>
					<coordinates>-75.32236583300001,2.994823333,0</coordinates>
				</Point>
			</Placemark>
			<Placemark id="5E86F664EB000005">
				<name>Punto B</name>
				<description><![CDATA[
        <b>Punto B</b><br/>
        Latitud: 2.994964722° N<br/>
        Longitud: 75.302998889° W<br/>
        Coordenada KML: -75.302998889, 2.994964722, 0
      ]]></description>
				<styleUrl>#__managed_style_01011C3E4941B39BB296</styleUrl>
				<Point>
					<coordinates>-75.30299888899999,2.994964722,0</coordinates>
				</Point>
			</Placemark>
			<Placemark id="5E86F664EB000006">
				<name>Punto C</name>
				<description><![CDATA[
        <b>Punto C</b><br/>
        Latitud: 2.984125278° N<br/>
        Longitud: 75.302876389° W<br/>
        Coordenada KML: -75.302876389, 2.984125278, 0
      ]]></description>
				<styleUrl>#__managed_style_01011C3E4941B39BB296</styleUrl>
				<Point>
					<coordinates>-75.30287638900001,2.984125278,0</coordinates>
				</Point>
			</Placemark>
			<Placemark id="5E86F664EB000007">
				<name>Punto D</name>
				<description><![CDATA[
        <b>Punto D</b><br/>
        Latitud: 2.974270833° N<br/>
        Longitud: 75.311740833° W<br/>
        Coordenada KML: -75.311740833, 2.974270833, 0
      ]]></description>
				<styleUrl>#__managed_style_01011C3E4941B39BB296</styleUrl>
				<Point>
					<coordinates>-75.311740833,2.974270833,0</coordinates>
				</Point>
			</Placemark>
			<Placemark id="5E86F664EB000008">
				<name>Punto E</name>
				<description><![CDATA[
        <b>Punto E</b><br/>
        Latitud: 2.975370556° N<br/>
        Longitud: 75.313839722° W<br/>
        Coordenada KML: -75.313839722, 2.975370556, 0
      ]]></description>
				<styleUrl>#__managed_style_01011C3E4941B39BB296</styleUrl>
				<Point>
					<coordinates>-75.313839722,2.975370556,0</coordinates>
				</Point>
			</Placemark>
			<Placemark id="5E86F664EB000009">
				<name>Punto F</name>
				<description><![CDATA[
        <b>Punto F</b><br/>
        Latitud: 2.978582222° N<br/>
        Longitud: 75.313746389° W<br/>
        Coordenada KML: -75.313746389, 2.978582222, 0
      ]]></description>
				<styleUrl>#__managed_style_01011C3E4941B39BB296</styleUrl>
				<Point>
					<coordinates>-75.313746389,2.978582222,0</coordinates>
				</Point>
			</Placemark>
			<Placemark id="5E86F664EB00000A">
				<name>Punto G</name>
				<description><![CDATA[
        <b>Punto G</b><br/>
        Latitud: 2.982095000° N<br/>
        Longitud: 75.313853611° W<br/>
        Coordenada KML: -75.313853611, 2.982095000, 0
      ]]></description>
				<styleUrl>#__managed_style_01011C3E4941B39BB296</styleUrl>
				<Point>
					<coordinates>-75.313853611,2.982095000000001,0</coordinates>
				</Point>
			</Placemark>
			<Placemark id="5E86F664EB00000B">
				<name>Punto H</name>
				<description><![CDATA[
        <b>Punto H</b><br/>
        Latitud: 2.983090833° N<br/>
        Longitud: 75.317549444° W<br/>
        Coordenada KML: -75.317549444, 2.983090833, 0
      ]]></description>
				<styleUrl>#__managed_style_01011C3E4941B39BB296</styleUrl>
				<Point>
					<coordinates>-75.31754944399999,2.983090833,0</coordinates>
				</Point>
			</Placemark>
		</Folder>
	</Folder>
	<Placemark id="04F7D2A6E041AD692CCC">
		<visibility>0</visibility>
		<gx:mid>/g/11ggc1p92g</gx:mid>
		<gx:fid>0x8e396466c7ceb761:0xbad721be28432cbd</gx:fid>
		<LookAt>
			<longitude>-75.4744601</longitude>
			<latitude>3.7190527</latitude>
			<altitude>0</altitude>
			<heading>0</heading>
			<tilt>0</tilt>
			<gx:fovy>35</gx:fovy>
			<range>1054.051187241226</range>
			<altitudeMode>relativeToGround</altitudeMode>
		</LookAt>
		<styleUrl>#__managed_style_0C30A793B441B39BB2A1</styleUrl>
		<Point>
			<altitudeMode>relativeToGround</altitudeMode>
			<coordinates>-75.47446099999999,3.7191036,0</coordinates>
		</Point>
	</Placemark>
	<Placemark id="0499244C1141AD6F28F1">
		<name>Marcador sin título</name>
		<visibility>0</visibility>
		<LookAt>
			<longitude>-75.26109223605248</longitude>
			<latitude>2.883122769895122</latitude>
			<altitude>495.6584602321553</altitude>
			<heading>0</heading>
			<tilt>0</tilt>
			<gx:fovy>35</gx:fovy>
			<range>76099.23967466691</range>
			<altitudeMode>absolute</altitudeMode>
		</LookAt>
		<styleUrl>#__managed_style_13BED54BD441B39BB2A1</styleUrl>
		<Point>
			<coordinates>-75.40300406994037,2.750163744870956,520.2492074162059</coordinates>
		</Point>
	</Placemark>
	<Placemark id="0DCB49390241AD742DC3">
		<name>Subestación Eléctrica Mirolindo</name>
		<visibility>0</visibility>
		<LookAt>
			<longitude>-75.1737272</longitude>
			<latitude>4.403144499999999</latitude>
			<altitude>0</altitude>
			<heading>0</heading>
			<tilt>0</tilt>
			<gx:fovy>35</gx:fovy>
			<range>1053.051254341004</range>
			<altitudeMode>relativeToGround</altitudeMode>
		</LookAt>
		<styleUrl>#__managed_style_05F659D91541B39BB29C</styleUrl>
		<Point>
			<altitudeMode>relativeToGround</altitudeMode>
			<coordinates>-75.20546991472786,4.45741272319419,0</coordinates>
		</Point>
	</Placemark>
	<Placemark id="0F1E73C58C41B3ABA07E">
		<name>Betania 230</name>
		<LookAt>
			<longitude>-75.432614</longitude>
			<latitude>2.70825</latitude>
			<altitude>0</altitude>
			<heading>0</heading>
			<tilt>0</tilt>
			<gx:fovy>35</gx:fovy>
			<range>1055.220946077048</range>
			<altitudeMode>relativeToGround</altitudeMode>
		</LookAt>
		<styleUrl>#__managed_style_177DE2184B41B39BB29B</styleUrl>
		<Point>
			<extrude>1</extrude>
			<coordinates>-75.432614,2.70825,0</coordinates>
		</Point>
	</Placemark>
	<Placemark id="00E2D4B7E841B3AC3AA7">
		<name>Tuluní 230 kV</name>
		<LookAt>
			<longitude>-75.474789</longitude>
			<latitude>3.719233</latitude>
			<altitude>0</altitude>
			<heading>0</heading>
			<tilt>0</tilt>
			<gx:fovy>35</gx:fovy>
			<range>1054.050945832978</range>
			<altitudeMode>relativeToGround</altitudeMode>
		</LookAt>
		<styleUrl>#__managed_style_177DE2184B41B39BB29B</styleUrl>
		<Point>
			<extrude>1</extrude>
			<coordinates>-75.474789,3.719233,0</coordinates>
		</Point>
	</Placemark>
	<Placemark id="0CD2B9E94141B3ACF377">
		<name>Mirolindo 230 kV</name>
		<LookAt>
			<longitude>-75.17313299999999</longitude>
			<latitude>4.403442</latitude>
			<altitude>0</altitude>
			<heading>0</heading>
			<tilt>0</tilt>
			<gx:fovy>35</gx:fovy>
			<range>1053.05078295481</range>
			<altitudeMode>relativeToGround</altitudeMode>
		</LookAt>
		<styleUrl>#__managed_style_177DE2184B41B39BB29B</styleUrl>
		<Point>
			<extrude>1</extrude>
			<coordinates>-75.17313299999999,4.403442,0</coordinates>
		</Point>
	</Placemark>
</Document>
</kml>
